IRIDIUM 57 [-]          
1 25273U 98019B   24050.33916422  .00000775  00000+0  26493-3 0  9992
2 25273  86.4012 347.8938 0002149  86.0226 274.1215 14.35092327355375
IRIDIUM 63 [-]          
1 25286U 98021B   24050.61613868  .00000590  00000+0  19791-3 0  9996
2 25286  86.3956 284.7016 0002191  82.1776 277.9670 14.35611660354445
IRIDIUM 69 [-]          
1 25319U 98026A   24050.75319435  .00000610  00000+0  18814-3 0  9994
2 25319  86.3978 299.3900 0003047 133.4094 226.7359 14.39805961353712
IRIDIUM 71 [-]          
1 25320U 98026B   24050.43217409  .00000747  00000+0  23042-3 0  9999
2 25320  86.3962 294.3127 0000837 165.5755 194.5468 14.40128605353940
IRIDIUM 73 [-]          
1 25344U 98032C   24050.84723080  .00000958  00000+0  24073-3 0  9993
2 25344  86.4379 251.7195 0002149 105.3701 254.7741 14.50303047360770
IRIDIUM 82 [-]          
1 25467U 98051A   24050.52888977  .00018060  00000+0  98239-3 0  9990
2 25467  86.3929 341.8582 0134934 296.1618  62.5791 15.06764660350606
IRIDIUM 2 [-]           
1 25527U 98066A   24050.38866368  .00081682  00000+0  11825-2 0  9992
2 25527  85.5138  19.4067 0008203  84.2487 275.9709 15.55563721389296
